[Satellite]
VERSION=1.1
NAME=FLOCK 1C-8
NICKNAME=FLOCK 1C-8
TLE1=1 40040U 14033AG  18018.74996908  .00000563  00000-0  62309-4 0  9997
TLE2=2 40040  97.9273 299.4839 0011717 294.5669  65.4229 14.91270329194751
